[{"OBJECT_NAME":"CUTE-1 (CO-55)","OBJECT_ID":"2003-031E","EPOCH":"2026-03-28T17:48:57.609216","MEAN_MOTION":14.24281445,"ECCENTRICITY":0.00106253,"INCLINATION":98.6773,"RA_OF_ASC_NODE":97.3052,"ARG_OF_PERICENTER":62.9133,"MEAN_ANOMALY":297.3129,"EPHEMERIS_TYPE":0,"CLASSIFICATION_TYPE":"U","NORAD_CAT_ID":27844,"ELEMENT_SET_NO":999,"REV_AT_EPOCH":18022,"BSTAR":0.00017738568,"MEAN_MOTION_DOT":3.66e-6,"MEAN_MOTION_DDOT":0},{"OBJECT_NAME":"CUBESAT XI-IV (CO-57)","OBJECT_ID":"2003-031J","EPOCH":"2026-03-28T13:12:05.572800","MEAN_MOTION":14.23574119,"ECCENTRICITY":0.0010614,"INCLINATION":98.6807,"RA_OF_ASC_NODE":96.8929,"ARG_OF_PERICENTER":79.7322,"MEAN_ANOMALY":280.5053,"EPHEMERIS_TYPE":0,"CLASSIFICATION_TYPE":"U","NORAD_CAT_ID":27848,"ELEMENT_SET_NO":999,"REV_AT_EPOCH":17990,"BSTAR":0.00015152,"MEAN_MOTION_DOT":3.01e-6,"MEAN_MOTION_DDOT":0},{"OBJECT_NAME":"CUBESAT XI-V","OBJECT_ID":"2005-043F","EPOCH":"2026-03-28T16:14:01.785984","MEAN_MOTION":14.72395539,"ECCENTRICITY":0.0015362,"INCLINATION":98.2868,"RA_OF_ASC_NODE":241.6643,"ARG_OF_PERICENTER":101.1756,"MEAN_ANOMALY":259.1179,"EPHEMERIS_TYPE":0,"CLASSIFICATION_TYPE":"U","NORAD_CAT_ID":28895,"ELEMENT_SET_NO":999,"REV_AT_EPOCH":8990,"BSTAR":0.00032469,"MEAN_MOTION_DOT":2.007e-5,"MEAN_MOTION_DDOT":0},{"OBJECT_NAME":"CUTE-1.7+APD II (CO-65)","OBJECT_ID":"2008-021C","EPOCH":"2026-03-29T05:09:53.830368","MEAN_MOTION":15.08638044,"ECCENTRICITY":0.0007607,"INCLINATION":97.8228,"RA_OF_ASC_NODE":68.044,"ARG_OF_PERICENTER":309.0033,"MEAN_ANOMALY":51.0517,"EPHEMERIS_TYPE":0,"CLASSIFICATION_TYPE":"U","NORAD_CAT_ID":32785,"ELEMENT_SET_NO":999,"REV_AT_EPOCH":97313,"BSTAR":0.00059137,"MEAN_MOTION_DOT":9.202e-5,"MEAN_MOTION_DDOT":0},{"OBJECT_NAME":"CANX-2","OBJECT_ID":"2008-021H","EPOCH":"2026-03-28T22:09:10.003680","MEAN_MOTION":15.04997484,"ECCENTRICITY":0.0009135,"INCLINATION":97.8588,"RA_OF_ASC_NODE":66.2064,"ARG_OF_PERICENTER":325.6115,"MEAN_ANOMALY":34.4518,"EPHEMERIS_TYPE":0,"CLASSIFICATION_TYPE":"U","NORAD_CAT_ID":32790,"ELEMENT_SET_NO":999,"REV_AT_EPOCH":97273,"BSTAR":0.00037822,"MEAN_MOTION_DOT":5.307e-5,"MEAN_MOTION_DDOT":0},{"OBJECT_NAME":"SEEDS II (CO-66)","OBJECT_ID":"2008-021J","EPOCH":"2026-03-28T12:01:52.460832","MEAN_MOTION":15.2986394,"ECCENTRICITY":0.0001837,"INCLINATION":97.7522,"RA_OF_ASC_NODE":81.7278,"ARG_OF_PERICENTER":175.4551,"MEAN_ANOMALY":184.6705,"EPHEMERIS_TYPE":0,"CLASSIFICATION_TYPE":"U","NORAD_CAT_ID":32791,"ELEMENT_SET_NO":999,"REV_AT_EPOCH":97494,"BSTAR":0.00078688,"MEAN_MOTION_DOT":0.0002272,"MEAN_MOTION_DDOT":0},{"OBJECT_NAME":"SWISSCUBE","OBJECT_ID":"2009-051B","EPOCH":"2026-03-29T04:25:28.950240","MEAN_MOTION":14.62312493,"ECCENTRICITY":0.0008021,"INCLINATION":98.4083,"RA_OF_ASC_NODE":354.6718,"ARG_OF_PERICENTER":99.0217,"MEAN_ANOMALY":261.1892,"EPHEMERIS_TYPE":0,"CLASSIFICATION_TYPE":"U","NORAD_CAT_ID":35932,"ELEMENT_SET_NO":999,"REV_AT_EPOCH":87746,"BSTAR":0.00030917,"MEAN_MOTION_DOT":1.512e-5,"MEAN_MOTION_DDOT":0},{"OBJECT_NAME":"BEESAT-1","OBJECT_ID":"2009-051C","EPOCH":"2026-03-29T03:40:05.215296","MEAN_MOTION":14.61577749,"ECCENTRICITY":0.0006362,"INCLINATION":98.4013,"RA_OF_ASC_NODE":354.4405,"ARG_OF_PERICENTER":110.1396,"MEAN_ANOMALY":250.0489,"EPHEMERIS_TYPE":0,"CLASSIFICATION_TYPE":"U","NORAD_CAT_ID":35933,"ELEMENT_SET_NO":999,"REV_AT_EPOCH":87749,"BSTAR":0.00026274,"MEAN_MOTION_DOT":1.256e-5,"MEAN_MOTION_DDOT":0},{"OBJECT_NAME":"ITUPSAT1","OBJECT_ID":"2009-051E","EPOCH":"2026-03-29T05:03:49.218912","MEAN_MOTION":14.60309071,"ECCENTRICITY":0.000845,"INCLINATION":98.41,"RA_OF_ASC_NODE":353.7747,"ARG_OF_PERICENTER":121.1104,"MEAN_ANOMALY":239.0925,"EPHEMERIS_TYPE":0,"CLASSIFICATION_TYPE":"U","NORAD_CAT_ID":35935,"ELEMENT_SET_NO":999,"REV_AT_EPOCH":87706,"BSTAR":0.00024801,"MEAN_MOTION_DOT":1.15e-5,"MEAN_MOTION_DDOT":0},{"OBJECT_NAME":"TISAT 1","OBJECT_ID":"2010-035E","EPOCH":"2026-03-29T01:47:26.690208","MEAN_MOTION":15.28514657,"ECCENTRICITY":0.0003635,"INCLINATION":98.0655,"RA_OF_ASC_NODE":27.7471,"ARG_OF_PERICENTER":128.812,"MEAN_ANOMALY":231.3443,"EPHEMERIS_TYPE":0,"CLASSIFICATION_TYPE":"U","NORAD_CAT_ID":36799,"ELEMENT_SET_NO":999,"REV_AT_EPOCH":85545,"BSTAR":0.00091959,"MEAN_MOTION_DOT":0.00025499,"MEAN_MOTION_DDOT":0},{"OBJECT_NAME":"AEROCUBE 4.5A","OBJECT_ID":"2012-048K","EPOCH":"2026-03-29T00:50:25.974240","MEAN_MOTION":15.65877948,"ECCENTRICITY":0.0036956,"INCLINATION":64.6361,"RA_OF_ASC_NODE":312.5239,"ARG_OF_PERICENTER":208.6195,"MEAN_ANOMALY":151.2926,"EPHEMERIS_TYPE":0,"CLASSIFICATION_TYPE":"U","NORAD_CAT_ID":38767,"ELEMENT_SET_NO":999,"REV_AT_EPOCH":36001,"BSTAR":0.0010208,"MEAN_MOTION_DOT":0.00109492,"MEAN_MOTION_DDOT":0},{"OBJECT_NAME":"STRAND-1","OBJECT_ID":"2013-009E","EPOCH":"2026-03-28T18:44:20.090112","MEAN_MOTION":14.37110554,"ECCENTRICITY":0.00097928,"INCLINATION":98.3903,"RA_OF_ASC_NODE":269.9991,"ARG_OF_PERICENTER":109.4666,"MEAN_ANOMALY":250.758,"EPHEMERIS_TYPE":0,"CLASSIFICATION_TYPE":"U","NORAD_CAT_ID":39090,"ELEMENT_SET_NO":999,"REV_AT_EPOCH":68551,"BSTAR":0.00013859758,"MEAN_MOTION_DOT":3.69e-6,"MEAN_MOTION_DDOT":0},{"OBJECT_NAME":"BRITE-AUSTRIA","OBJECT_ID":"2013-009F","EPOCH":"2026-03-29T00:54:43.096320","MEAN_MOTION":14.36506933,"ECCENTRICITY":0.0011288,"INCLINATION":98.3973,"RA_OF_ASC_NODE":269.4628,"ARG_OF_PERICENTER":116.943,"MEAN_ANOMALY":243.291,"EPHEMERIS_TYPE":0,"CLASSIFICATION_TYPE":"U","NORAD_CAT_ID":39091,"ELEMENT_SET_NO":999,"REV_AT_EPOCH":68554,"BSTAR":9.6728e-5,"MEAN_MOTION_DOT":2.41e-6,"MEAN_MOTION_DDOT":0},{"OBJECT_NAME":"NEE-01 PEGASO","OBJECT_ID":"2013-018B","EPOCH":"2026-03-28T07:54:56.086848","MEAN_MOTION":14.9322512,"ECCENTRICITY":0.00137492,"INCLINATION":98.1084,"RA_OF_ASC_NODE":228.8894,"ARG_OF_PERICENTER":73.4438,"MEAN_ANOMALY":286.8289,"EPHEMERIS_TYPE":0,"CLASSIFICATION_TYPE":"U","NORAD_CAT_ID":39151,"ELEMENT_SET_NO":999,"REV_AT_EPOCH":69863,"BSTAR":0.00038166262,"MEAN_MOTION_DOT":3.936e-5,"MEAN_MOTION_DDOT":0},{"OBJECT_NAME":"POPACS 2","OBJECT_ID":"2013-055E","EPOCH":"2026-03-29T03:22:25.281696","MEAN_MOTION":14.88885074,"ECCENTRICITY":0.0427029,"INCLINATION":80.9905,"RA_OF_ASC_NODE":235.6658,"ARG_OF_PERICENTER":90.7198,"MEAN_ANOMALY":274.2952,"EPHEMERIS_TYPE":0,"CLASSIFICATION_TYPE":"U","NORAD_CAT_ID":39269,"ELEMENT_SET_NO":999,"REV_AT_EPOCH":65129,"BSTAR":0.00050118,"MEAN_MOTION_DOT":0.00029281,"MEAN_MOTION_DDOT":0},{"OBJECT_NAME":"POPACS 3","OBJECT_ID":"2013-055F","EPOCH":"2026-03-28T16:03:35.224416","MEAN_MOTION":14.54442225,"ECCENTRICITY":0.05573085,"INCLINATION":81.0031,"RA_OF_ASC_NODE":316.3964,"ARG_OF_PERICENTER":315.0304,"MEAN_ANOMALY":40.6998,"EPHEMERIS_TYPE":0,"CLASSIFICATION_TYPE":"U","NORAD_CAT_ID":39270,"ELEMENT_SET_NO":999,"REV_AT_EPOCH":62684,"BSTAR":0.00023988691,"MEAN_MOTION_DOT":9.885e-5,"MEAN_MOTION_DDOT":0},{"OBJECT_NAME":"ZACUBE-1 (TSHEPISOSAT)","OBJECT_ID":"2013-066B","EPOCH":"2026-03-29T03:17:09.015360","MEAN_MOTION":15.00497521,"ECCENTRICITY":0.0044615,"INCLINATION":97.8137,"RA_OF_ASC_NODE":50.055,"ARG_OF_PERICENTER":156.4937,"MEAN_ANOMALY":203.8338,"EPHEMERIS_TYPE":0,"CLASSIFICATION_TYPE":"U","NORAD_CAT_ID":39417,"ELEMENT_SET_NO":999,"REV_AT_EPOCH":66872,"BSTAR":0.00040731,"MEAN_MOTION_DOT":5.177e-5,"MEAN_MOTION_DDOT":0}]
